INTELSAT 10 (IS-10)     
1 26766U 01019A   26061.82822588 -.00000297  00000+0  00000+0 0  9993
2 26766   8.8221  60.3368 0006023 264.4557 284.1492  0.99042112 44523
INTELSAT 902 (IS-902)   
1 26900U 01039A   26062.03863721 -.00000296  00000+0  00000+0 0  9992
2 26900   5.8488  73.0785 0004598 274.7996 136.7372  1.00270738 89635
INTELSAT 904 (IS-904)   
1 27380U 02007A   26061.46017110 -.00000240  00000+0  00000+0 0  9999
2 27380   6.6541  70.4635 0006068 306.2018 277.7210  1.00270508 50698
DIRECTV 5 (TEMPO 1)     
1 27426U 02023A   26062.13680015 -.00000071  00000+0  00000+0 0  9995
2 27426   4.6072  76.6364 0003594 271.5285 111.8780  1.00272043 87061
INTELSAT 905 (IS-905)   
1 27438U 02027A   26062.13125346  .00000081  00000+0  00000+0 0  9993
2 27438   6.4875  71.0761 0003158 273.9975  85.8722  1.00272909 50295
GALAXY 3C (G-3C)        
1 27445U 02030A   26062.12649284 -.00000167  00000+0  00000+0 0  9992
2 27445   3.4613  79.4778 0000911  31.0944   1.0163  1.00271556 45439
INTELSAT 906 (IS-906)   
1 27513U 02041A   26062.09975346  .00000000  00000+0  00000+0 0  9992
2 27513   5.5328  74.2286 0003256 255.7490 290.9506  1.00272667 85960
GALAXY 13 (HORIZONS-1)  
1 27954U 03044A   26062.12891346  .00000117  00000+0  00000+0 0  9995
2 27954   1.1435  85.3226 0002175 258.8832  73.0799  1.00271998 45506
INTELSAT 10-02          
1 28358U 04022A   26061.87315514 -.00000028  00000+0  00000+0 0  9992
2 28358   0.0151 123.0430 0001042 253.4183  97.4995  1.00270496 79492
DIRECTV 8               
1 28659U 05019A   26062.15947694 -.00000014  00000+0  00000+0 0  9990
2 28659   0.0159 126.7477 0003275 226.4602 106.0609  1.00272228 76010
GALAXY 28 (G-28)        
1 28702U 05022A   26061.39714784 -.00000215  00000+0  00000+0 0  9993
2 28702   3.0245  80.2799 0003380 282.0971 273.6715  1.00283990 50900
GALAXY 16 (G-16)        
1 29236U 06023A   26062.15392248 -.00000142  00000+0  00000+0 0  9999
2 29236   0.0481 239.0872 0002426 118.3939 119.8314  1.00271586 71911
DIRECTV 9S              
1 29494U 06043A   26062.15392248 -.00000128  00000+0  00000+0 0  9991
2 29494   2.1472  82.2185 0003147 265.5262 127.3703  1.00271339 50324
GALAXY 17 (G-17)        
1 31307U 07016B   26062.07049984 -.00000221  00000+0  00000+0 0  9999
2 31307   2.7032  81.2580 0003349 260.0293 119.9249  1.00272199 68746
DIRECTV 10              
1 31862U 07032A   26062.09975346  .00000000  00000+0  00000+0 0  9999
2 31862   0.1284 101.2650 0006556 271.7889 242.4695  0.98336135 44521
INTELSAT 11 (IS-11)     
1 32253U 07044B   26062.13324681  .00000060  00000+0  00000+0 0  9998
2 32253   3.2892  79.9766 0005281 204.5830 156.4065  0.99048302 67402
HORIZONS-2              
1 32388U 07063B   26062.14280992 -.00000268  00000+0  00000+0 0  9996
2 32388   2.3288  81.9700 0002854 253.1106 163.4410  1.00271953 66752
