[{"OBJECT_NAME":"INTELSAT 10 (IS-10)","OBJECT_ID":"2001-019A","EPOCH":"2026-03-02T19:52:38.716032","MEAN_MOTION":0.99042112,"ECCENTRICITY":0.00060234,"INCLINATION":8.8221,"RA_OF_ASC_NODE":60.3368,"ARG_OF_PERICENTER":264.4557,"MEAN_ANOMALY":284.1492,"EPHEMERIS_TYPE":0,"CLASSIFICATION_TYPE":"U","NORAD_CAT_ID":26766,"ELEMENT_SET_NO":999,"REV_AT_EPOCH":4452,"BSTAR":0,"MEAN_MOTION_DOT":-2.97e-6,"MEAN_MOTION_DDOT":0},{"OBJECT_NAME":"INTELSAT 902 (IS-902)","OBJECT_ID":"2001-039A","EPOCH":"2026-03-03T00:55:38.254944","MEAN_MOTION":1.00270738,"ECCENTRICITY":0.0004598,"INCLINATION":5.8488,"RA_OF_ASC_NODE":73.0785,"ARG_OF_PERICENTER":274.7996,"MEAN_ANOMALY":136.7372,"EPHEMERIS_TYPE":0,"CLASSIFICATION_TYPE":"U","NORAD_CAT_ID":26900,"ELEMENT_SET_NO":999,"REV_AT_EPOCH":8963,"BSTAR":0,"MEAN_MOTION_DOT":-2.96e-6,"MEAN_MOTION_DDOT":0},{"OBJECT_NAME":"INTELSAT 904 (IS-904)","OBJECT_ID":"2002-007A","EPOCH":"2026-03-02T11:02:38.783040","MEAN_MOTION":1.00270508,"ECCENTRICITY":0.0006068,"INCLINATION":6.6541,"RA_OF_ASC_NODE":70.4635,"ARG_OF_PERICENTER":306.2018,"MEAN_ANOMALY":277.721,"EPHEMERIS_TYPE":0,"CLASSIFICATION_TYPE":"U","NORAD_CAT_ID":27380,"ELEMENT_SET_NO":999,"REV_AT_EPOCH":5069,"BSTAR":0,"MEAN_MOTION_DOT":-2.4e-6,"MEAN_MOTION_DDOT":0},{"OBJECT_NAME":"DIRECTV 5 (TEMPO 1)","OBJECT_ID":"2002-023A","EPOCH":"2026-03-03T03:16:59.532960","MEAN_MOTION":1.00272043,"ECCENTRICITY":0.0003594,"INCLINATION":4.6072,"RA_OF_ASC_NODE":76.6364,"ARG_OF_PERICENTER":271.5285,"MEAN_ANOMALY":111.878,"EPHEMERIS_TYPE":0,"CLASSIFICATION_TYPE":"U","NORAD_CAT_ID":27426,"ELEMENT_SET_NO":999,"REV_AT_EPOCH":8706,"BSTAR":0,"MEAN_MOTION_DOT":-7.1e-7,"MEAN_MOTION_DDOT":0},{"OBJECT_NAME":"INTELSAT 905 (IS-905)","OBJECT_ID":"2002-027A","EPOCH":"2026-03-03T03:09:00.298944","MEAN_MOTION":1.00272909,"ECCENTRICITY":0.0003158,"INCLINATION":6.4875,"RA_OF_ASC_NODE":71.0761,"ARG_OF_PERICENTER":273.9975,"MEAN_ANOMALY":85.8722,"EPHEMERIS_TYPE":0,"CLASSIFICATION_TYPE":"U","NORAD_CAT_ID":27438,"ELEMENT_SET_NO":999,"REV_AT_EPOCH":5029,"BSTAR":0,"MEAN_MOTION_DOT":8.1e-7,"MEAN_MOTION_DDOT":0},{"OBJECT_NAME":"GALAXY 3C (G-3C)","OBJECT_ID":"2002-030A","EPOCH":"2026-03-03T03:02:08.981376","MEAN_MOTION":1.00271556,"ECCENTRICITY":9.11e-5,"INCLINATION":3.4613,"RA_OF_ASC_NODE":79.4778,"ARG_OF_PERICENTER":31.0944,"MEAN_ANOMALY":1.0163,"EPHEMERIS_TYPE":0,"CLASSIFICATION_TYPE":"U","NORAD_CAT_ID":27445,"ELEMENT_SET_NO":999,"REV_AT_EPOCH":4543,"BSTAR":0,"MEAN_MOTION_DOT":-1.67e-6,"MEAN_MOTION_DDOT":0},{"OBJECT_NAME":"INTELSAT 906 (IS-906)","OBJECT_ID":"2002-041A","EPOCH":"2026-03-03T02:23:38.698944","MEAN_MOTION":1.00272667,"ECCENTRICITY":0.0003256,"INCLINATION":5.5328,"RA_OF_ASC_NODE":74.2286,"ARG_OF_PERICENTER":255.749,"MEAN_ANOMALY":290.9506,"EPHEMERIS_TYPE":0,"CLASSIFICATION_TYPE":"U","NORAD_CAT_ID":27513,"ELEMENT_SET_NO":999,"REV_AT_EPOCH":8596,"BSTAR":0,"MEAN_MOTION_DOT":0,"MEAN_MOTION_DDOT":0},{"OBJECT_NAME":"GALAXY 13 (HORIZONS-1)","OBJECT_ID":"2003-044A","EPOCH":"2026-03-03T03:05:38.122944","MEAN_MOTION":1.00271998,"ECCENTRICITY":0.0002175,"INCLINATION":1.1435,"RA_OF_ASC_NODE":85.3226,"ARG_OF_PERICENTER":258.8832,"MEAN_ANOMALY":73.0799,"EPHEMERIS_TYPE":0,"CLASSIFICATION_TYPE":"U","NORAD_CAT_ID":27954,"ELEMENT_SET_NO":999,"REV_AT_EPOCH":4550,"BSTAR":0,"MEAN_MOTION_DOT":1.17e-6,"MEAN_MOTION_DDOT":0},{"OBJECT_NAME":"INTELSAT 10-02","OBJECT_ID":"2004-022A","EPOCH":"2026-03-02T20:57:20.604096","MEAN_MOTION":1.00270496,"ECCENTRICITY":0.0001042,"INCLINATION":0.0151,"RA_OF_ASC_NODE":123.043,"ARG_OF_PERICENTER":253.4183,"MEAN_ANOMALY":97.4995,"EPHEMERIS_TYPE":0,"CLASSIFICATION_TYPE":"U","NORAD_CAT_ID":28358,"ELEMENT_SET_NO":999,"REV_AT_EPOCH":7949,"BSTAR":0,"MEAN_MOTION_DOT":-2.8e-7,"MEAN_MOTION_DDOT":0},{"OBJECT_NAME":"DIRECTV 8","OBJECT_ID":"2005-019A","EPOCH":"2026-03-03T03:49:38.807616","MEAN_MOTION":1.00272228,"ECCENTRICITY":0.0003275,"INCLINATION":0.0159,"RA_OF_ASC_NODE":126.7477,"ARG_OF_PERICENTER":226.4602,"MEAN_ANOMALY":106.0609,"EPHEMERIS_TYPE":0,"CLASSIFICATION_TYPE":"U","NORAD_CAT_ID":28659,"ELEMENT_SET_NO":999,"REV_AT_EPOCH":7601,"BSTAR":0,"MEAN_MOTION_DOT":-1.4e-7,"MEAN_MOTION_DDOT":0},{"OBJECT_NAME":"GALAXY 28 (G-28)","OBJECT_ID":"2005-022A","EPOCH":"2026-03-02T09:31:53.573376","MEAN_MOTION":1.0028399,"ECCENTRICITY":0.00033801,"INCLINATION":3.0245,"RA_OF_ASC_NODE":80.2799,"ARG_OF_PERICENTER":282.0971,"MEAN_ANOMALY":273.6715,"EPHEMERIS_TYPE":0,"CLASSIFICATION_TYPE":"U","NORAD_CAT_ID":28702,"ELEMENT_SET_NO":999,"REV_AT_EPOCH":5090,"BSTAR":0,"MEAN_MOTION_DOT":-2.15e-6,"MEAN_MOTION_DDOT":0},{"OBJECT_NAME":"GALAXY 16 (G-16)","OBJECT_ID":"2006-023A","EPOCH":"2026-03-03T03:41:38.902272","MEAN_MOTION":1.00271586,"ECCENTRICITY":0.0002426,"INCLINATION":0.0481,"RA_OF_ASC_NODE":239.0872,"ARG_OF_PERICENTER":118.3939,"MEAN_ANOMALY":119.8314,"EPHEMERIS_TYPE":0,"CLASSIFICATION_TYPE":"U","NORAD_CAT_ID":29236,"ELEMENT_SET_NO":999,"REV_AT_EPOCH":7191,"BSTAR":0,"MEAN_MOTION_DOT":-1.42e-6,"MEAN_MOTION_DDOT":0},{"OBJECT_NAME":"DIRECTV 9S","OBJECT_ID":"2006-043A","EPOCH":"2026-03-03T03:41:38.902272","MEAN_MOTION":1.00271339,"ECCENTRICITY":0.0003147,"INCLINATION":2.1472,"RA_OF_ASC_NODE":82.2185,"ARG_OF_PERICENTER":265.5262,"MEAN_ANOMALY":127.3703,"EPHEMERIS_TYPE":0,"CLASSIFICATION_TYPE":"U","NORAD_CAT_ID":29494,"ELEMENT_SET_NO":999,"REV_AT_EPOCH":5032,"BSTAR":0,"MEAN_MOTION_DOT":-1.28e-6,"MEAN_MOTION_DDOT":0},{"OBJECT_NAME":"GALAXY 17 (G-17)","OBJECT_ID":"2007-016B","EPOCH":"2026-03-03T01:41:31.186176","MEAN_MOTION":1.00272199,"ECCENTRICITY":0.0003349,"INCLINATION":2.7032,"RA_OF_ASC_NODE":81.258,"ARG_OF_PERICENTER":260.0293,"MEAN_ANOMALY":119.9249,"EPHEMERIS_TYPE":0,"CLASSIFICATION_TYPE":"U","NORAD_CAT_ID":31307,"ELEMENT_SET_NO":999,"REV_AT_EPOCH":6874,"BSTAR":0,"MEAN_MOTION_DOT":-2.21e-6,"MEAN_MOTION_DDOT":0},{"OBJECT_NAME":"DIRECTV 10","OBJECT_ID":"2007-032A","EPOCH":"2026-03-03T02:23:38.698944","MEAN_MOTION":0.98336135,"ECCENTRICITY":0.0006556,"INCLINATION":0.1284,"RA_OF_ASC_NODE":101.265,"ARG_OF_PERICENTER":271.7889,"MEAN_ANOMALY":242.4695,"EPHEMERIS_TYPE":0,"CLASSIFICATION_TYPE":"U","NORAD_CAT_ID":31862,"ELEMENT_SET_NO":999,"REV_AT_EPOCH":4452,"BSTAR":0,"MEAN_MOTION_DOT":0,"MEAN_MOTION_DDOT":0},{"OBJECT_NAME":"INTELSAT 11 (IS-11)","OBJECT_ID":"2007-044B","EPOCH":"2026-03-03T03:11:52.524384","MEAN_MOTION":0.99048302,"ECCENTRICITY":0.0005281,"INCLINATION":3.2892,"RA_OF_ASC_NODE":79.9766,"ARG_OF_PERICENTER":204.583,"MEAN_ANOMALY":156.4065,"EPHEMERIS_TYPE":0,"CLASSIFICATION_TYPE":"U","NORAD_CAT_ID":32253,"ELEMENT_SET_NO":999,"REV_AT_EPOCH":6740,"BSTAR":0,"MEAN_MOTION_DOT":6.0e-7,"MEAN_MOTION_DDOT":0},{"OBJECT_NAME":"HORIZONS-2","OBJECT_ID":"2007-063B","EPOCH":"2026-03-03T03:25:38.777088","MEAN_MOTION":1.00271953,"ECCENTRICITY":0.0002854,"INCLINATION":2.3288,"RA_OF_ASC_NODE":81.97,"ARG_OF_PERICENTER":253.1106,"MEAN_ANOMALY":163.441,"EPHEMERIS_TYPE":0,"CLASSIFICATION_TYPE":"U","NORAD_CAT_ID":32388,"ELEMENT_SET_NO":999,"REV_AT_EPOCH":6675,"BSTAR":0,"MEAN_MOTION_DOT":-2.68e-6,"MEAN_MOTION_DDOT":0}]
